{"type": "FeatureCollection", "features": [ {"type": "Feature", "properties": {"norad_id": 54234, "name": "NOAA 21 (JPSS-2)", "group": "weather", "lat": -66.03627701712917, "lon": 95.2914919577936, "alt_km": 834.8227914821864, "timestamp": "2025-12-25T09:48:51.931048+00:00", "meta": {"OBJECT_NAME": "NOAA 21 (JPSS-2)", "OBJECT_ID": "2022-150A", "EPOCH": "2025-12-24T20:48:36.242496", "MEAN_MOTION": 14.19527401, "ECCENTRICITY": 0.00016632, "INCLINATION": 98.7478, "RA_OF_ASC_NODE": 295.0249, "ARG_OF_PERICENTER": 12.9884, "MEAN_ANOMALY": 347.1335, "EPHEMERIS_TYPE": 0, "CLASSIFICATION_TYPE": "U", "NORAD_CAT_ID": 54234, "ELEMENT_SET_NO": 999, "REV_AT_EPOCH": 16181, "BSTAR": 7.0672378e-05, "MEAN_MOTION_DOT": 1.05e-06, "MEAN_MOTION_DDOT": 0}, "tle": {"line1": "1 54234U 22150A   25358.86708614  .00000105  00000+0  70672-4 0  9992", "line2": "2 54234  98.7478 295.0249 0001663  12.9884 347.1335 14.19527401161819"}}, "geometry": {"type": "Point", "coordinates": [95.2914919577936, -66.03627701712917]}}, {"type": "Feature", "properties": {"norad_id": 54743, "name": "METEOSAT-12 (MTG-I1)", "group": "weather", "lat": -0.42066484458745956, "lon": -118.95317350371491, "alt_km": 35780.18378745783, "timestamp": "2025-12-25T09:48:51.931094+00:00", "meta": {"OBJECT_NAME": "METEOSAT-12 (MTG-I1)", "OBJECT_ID": "2022-170C", "EPOCH": "2025-12-24T21:39:29.392992", "MEAN_MOTION": 1.00270881, "ECCENTRICITY": 0.0001621, "INCLINATION": 0.6994, "RA_OF_ASC_NODE": 25.6342, "ARG_OF_PERICENTER": 240.988, "MEAN_ANOMALY": 151.5996, "EPHEMERIS_TYPE": 0, "CLASSIFICATION_TYPE": "U", "NORAD_CAT_ID": 54743, "ELEMENT_SET_NO": 999, "REV_AT_EPOCH": 1123, "BSTAR": 0, "MEAN_MOTION_DOT": 1.3e-07, "MEAN_MOTION_DDOT": 0}, "tle": {"line1": "1 54743U 22170C   25358.90242353  .00000013  00000+0  00000+0 0  9998", "line2": "2 54743   0.6994  25.6342 0001621 240.9880 151.5996  1.00270881 11236"}}, "geometry": {"type": "Point", "coordinates": [-118.95317350371491, -0.42066484458745956]}}, {"type": "Feature", "properties": {"norad_id": 55973, "name": "TIANMU-1 03", "group": "weather", "lat": -50.35359844938373, "lon": 171.57980849737388, "alt_km": 448.5773223916249, "timestamp": "2025-12-25T09:48:51.931107+00:00", "meta": {"OBJECT_NAME": "TIANMU-1 03", "OBJECT_ID": "2023-039A", "EPOCH": "2025-12-24T23:07:40.643904", "MEAN_MOTION": 15.41275705, "ECCENTRICITY": 0.00038021, "INCLINATION": 97.5114, "RA_OF_ASC_NODE": 161.9594, "ARG_OF_PERICENTER": 25.3706, "MEAN_ANOMALY": 334.7727, "EPHEMERIS_TYPE": 0, "CLASSIFICATION_TYPE": "U", "NORAD_CAT_ID": 55973, "ELEMENT_SET_NO": 999, "REV_AT_EPOCH": 15394, "BSTAR": 0.0003965868, "MEAN_MOTION_DOT": 0.00016433, "MEAN_MOTION_DDOT": 0}, "tle": {"line1": "1 55973U 23039A   25358.96366486  .00016433  00000+0  39659-3 0  9998", "line2": "2 55973  97.5114 161.9594 0003802  25.3706 334.7727 15.41275705153941"}}, "geometry": {"type": "Point", "coordinates": [171.57980849737388, -50.35359844938373]}}, {"type": "Feature", "properties": {"norad_id": 55974, "name": "TIANMU-1 04", "group": "weather", "lat": 76.41863549797588, "lon": 128.53163428849268, "alt_km": 432.66348890569407, "timestamp": "2025-12-25T09:48:51.931118+00:00", "meta": {"OBJECT_NAME": "TIANMU-1 04", "OBJECT_ID": "2023-039B", "EPOCH": "2025-12-24T22:34:12.449568", "MEAN_MOTION": 15.41618591, "ECCENTRICITY": 0.00044085, "INCLINATION": 97.5046, "RA_OF_ASC_NODE": 161.1217, "ARG_OF_PERICENTER": 18.547, "MEAN_ANOMALY": 341.5936, "EPHEMERIS_TYPE": 0, "CLASSIFICATION_TYPE": "U", "NORAD_CAT_ID": 55974, "ELEMENT_SET_NO": 999, "REV_AT_EPOCH": 15394, "BSTAR": 0.0004020934, "MEAN_MOTION_DOT": 0.00016856, "MEAN_MOTION_DDOT": 0}, "tle": {"line1": "1 55974U 23039B   25358.94042187  .00016856  00000+0  40209-3 0  9998", "line2": "2 55974  97.5046 161.1217 0004408  18.5470 341.5936 15.41618591153947"}}, "geometry": {"type": "Point", "coordinates": [128.53163428849268, 76.41863549797588]}}, {"type": "Feature", "properties": {"norad_id": 55975, "name": "TIANMU-1 05", "group": "weather", "lat": 81.86444904105042, "lon": 49.42804114790867, "alt_km": 433.26061343267884, "timestamp": "2025-12-25T09:48:51.931128+00:00", "meta": {"OBJECT_NAME": "TIANMU-1 05", "OBJECT_ID": "2023-039C", "EPOCH": "2025-12-24T22:30:17.278272", "MEAN_MOTION": 15.41231847, "ECCENTRICITY": 0.00039492, "INCLINATION": 97.5093, "RA_OF_ASC_NODE": 161.6118, "ARG_OF_PERICENTER": 44.3933, "MEAN_ANOMALY": 315.7629, "EPHEMERIS_TYPE": 0, "CLASSIFICATION_TYPE": "U", "NORAD_CAT_ID": 55975, "ELEMENT_SET_NO": 999, "REV_AT_EPOCH": 15392, "BSTAR": 0.00040135033, "MEAN_MOTION_DOT": 0.00016608, "MEAN_MOTION_DDOT": 0}, "tle": {"line1": "1 55975U 23039C   25358.93769998  .00016608  00000+0  40135-3 0  9997", "line2": "2 55975  97.5093 161.6118 0003949  44.3933 315.7629 15.41231847153920"}}, "geometry": {"type": "Point", "coordinates": [49.42804114790867, 81.86444904105042]}}, {"type": "Feature", "properties": {"norad_id": 55976, "name": "TIANMU-1 06", "group": "weather", "lat": 67.6730763415888, "lon": 143.83310017395007, "alt_km": 432.1447736488144, "timestamp": "2025-12-25T09:48:51.931138+00:00", "meta": {"OBJECT_NAME": "TIANMU-1 06", "OBJECT_ID": "2023-039D", "EPOCH": "2025-12-24T22:36:45.105408", "MEAN_MOTION": 15.41669925, "ECCENTRICITY": 0.00042035, "INCLINATION": 97.5104, "RA_OF_ASC_NODE": 162.0915, "ARG_OF_PERICENTER": 38.4419, "MEAN_ANOMALY": 321.7127, "EPHEMERIS_TYPE": 0, "CLASSIFICATION_TYPE": "U", "NORAD_CAT_ID": 55976, "ELEMENT_SET_NO": 999, "REV_AT_EPOCH": 15394, "BSTAR": 0.00040256154, "MEAN_MOTION_DOT": 0.00016904, "MEAN_MOTION_DDOT": 0}, "tle": {"line1": "1 55976U 23039D   25358.94218872  .00016904  00000+0  40256-3 0  9992", "line2": "2 55976  97.5104 162.0915 0004203  38.4419 321.7127 15.41669925153945"}}, "geometry": {"type": "Point", "coordinates": [143.83310017395007, 67.6730763415888]}}, {"type": "Feature", "properties": {"norad_id": 56232, "name": "FENGYUN 3G", "group": "weather", "lat": 49.92368592226197, "lon": -111.29657225109558, "alt_km": 406.1080011175336, "timestamp": "2025-12-25T09:48:51.931148+00:00", "meta": {"OBJECT_NAME": "FENGYUN 3G", "OBJECT_ID": "2023-055A", "EPOCH": "2025-12-24T22:37:17.658336", "MEAN_MOTION": 15.52036957, "ECCENTRICITY": 0.00039259, "INCLINATION": 49.9924, "RA_OF_ASC_NODE": 164.4637, "ARG_OF_PERICENTER": 287.7097, "MEAN_ANOMALY": 72.3441, "EPHEMERIS_TYPE": 0, "CLASSIFICATION_TYPE": "U", "NORAD_CAT_ID": 56232, "ELEMENT_SET_NO": 999, "REV_AT_EPOCH": 15292, "BSTAR": 0.00050839363, "MEAN_MOTION_DOT": 0.0003091, "MEAN_MOTION_DDOT": 0}, "tle": {"line1": "1 56232U 23055A   25358.94256549  .00030910  00000+0  50839-3 0  9990", "line2": "2 56232  49.9924 164.4637 0003925 287.7097  72.3441 15.52036957152920"}}, "geometry": {"type": "Point", "coordinates": [-111.29657225109558, 49.92368592226197]}}, {"type": "Feature", "properties": {"norad_id": 57166, "name": "METEOR-M2 3", "group": "weather", "lat": -1.052113266512344, "lon": 52.885911620050564, "alt_km": 812.789492497689, "timestamp": "2025-12-25T09:48:51.931162+00:00", "meta": {"OBJECT_NAME": "METEOR-M2 3", "OBJECT_ID": "2023-091A", "EPOCH": "2025-12-24T23:42:05.438016", "MEAN_MOTION": 14.24027517, "ECCENTRICITY": 0.00032541, "INCLINATION": 98.6362, "RA_OF_ASC_NODE": 52.3121, "ARG_OF_PERICENTER": 330.5943, "MEAN_ANOMALY": 29.5052, "EPHEMERIS_TYPE": 0, "CLASSIFICATION_TYPE": "U", "NORAD_CAT_ID": 57166, "ELEMENT_SET_NO": 999, "REV_AT_EPOCH": 12972, "BSTAR": 2.2579466e-05, "MEAN_MOTION_DOT": 8e-08, "MEAN_MOTION_DDOT": 0}, "tle": {"line1": "1 57166U 23091A   25358.98756294  .00000008  00000+0  22579-4 0  9999", "line2": "2 57166  98.6362  52.3121 0003254 330.5943  29.5052 14.24027517129723"}}, "geometry": {"type": "Point", "coordinates": [52.885911620050564, -1.052113266512344]}}, {"type": "Feature", "properties": {"norad_id": 57399, "name": "TIANMU-1 07", "group": "weather", "lat": -66.2689744699475, "lon": -147.93992188561253, "alt_km": 491.58006832808314, "timestamp": "2025-12-25T09:48:51.931173+00:00", "meta": {"OBJECT_NAME": "TIANMU-1 07", "OBJECT_ID": "2023-101A", "EPOCH": "2025-12-24T23:18:24.905376", "MEAN_MOTION": 15.28241873, "ECCENTRICITY": 0.00050247, "INCLINATION": 97.2856, "RA_OF_ASC_NODE": 48.551, "ARG_OF_PERICENTER": 50.0368, "MEAN_ANOMALY": 310.1312, "EPHEMERIS_TYPE": 0, "CLASSIFICATION_TYPE": "U", "NORAD_CAT_ID": 57399, "ELEMENT_SET_NO": 999, "REV_AT_EPOCH": 13502, "BSTAR": 0.00029376952, "MEAN_MOTION_DOT": 8.015e-05, "MEAN_MOTION_DDOT": 0}, "tle": {"line1": "1 57399U 23101A   25358.97112159  .00008015  00000+0  29377-3 0  9992", "line2": "2 57399  97.2856  48.5510 0005024  50.0368 310.1312 15.28241873135021"}}, "geometry": {"type": "Point", "coordinates": [-147.93992188561253, -66.2689744699475]}}, {"type": "Feature", "properties": {"norad_id": 57400, "name": "TIANMU-1 08", "group": "weather", "lat": 67.11928830224554, "lon": 31.130827579127264, "alt_km": 470.132506112006, "timestamp": "2025-12-25T09:48:51.931183+00:00", "meta": {"OBJECT_NAME": "TIANMU-1 08", "OBJECT_ID": "2023-101B", "EPOCH": "2025-12-24T22:31:01.224768", "MEAN_MOTION": 15.28223184, "ECCENTRICITY": 0.00069477, "INCLINATION": 97.2844, "RA_OF_ASC_NODE": 48.3147, "ARG_OF_PERICENTER": 49.3419, "MEAN_ANOMALY": 310.8424, "EPHEMERIS_TYPE": 0, "CLASSIFICATION_TYPE": "U", "NORAD_CAT_ID": 57400, "ELEMENT_SET_NO": 999, "REV_AT_EPOCH": 13501, "BSTAR": 0.00027759286, "MEAN_MOTION_DOT": 7.567e-05, "MEAN_MOTION_DDOT": 0}, "tle": {"line1": "1 57400U 23101B   25358.93820862  .00007567  00000+0  27759-3 0  9991", "line2": "2 57400  97.2844  48.3147 0006947  49.3419 310.8424 15.28223184135013"}}, "geometry": {"type": "Point", "coordinates": [31.130827579127264, 67.11928830224554]}}]}